{
  "type": "FeatureCollection",
  "features": [
    {
      "type": "Feature",
      "properties": {
        "country": "FR",
        "percentage": 0.35
      },
      "geometry": {
        "type": "Polygon",
        "coordinates": [
          [
            [-5.0, 42.0],
            [8.0, 42.0],
            [8.0, 51.0],
            [-5.0, 51.0],
            [-5.0, 42.0]
          ]
        ]
      }
    },
    {
      "type": "Feature",
      "properties": {
        "country": "US",
        "percentage": 0.85
      },
      "geometry": {
        "type": "Polygon",
        "coordinates": [
          [
            [-125.0, 25.0],
            [-67.0, 25.0],
            [-67.0, 49.0],
            [-125.0, 49.0],
            [-125.0, 25.0]
          ]
        ]
      }
    },
    {
      "type": "Feature",
      "properties": {
        "country": "BR",
        "percentage": 0.55
      },
      "geometry": {
        "type": "Polygon",
        "coordinates": [
          [
            [-74.0, -34.0],
            [-35.0, -34.0],
            [-35.0, 5.0],
            [-74.0, 5.0],
            [-74.0, -34.0]
          ]
        ]
      }
    },
    {
      "type": "Feature",
      "properties": {
        "country": "AU",
        "percentage": 0.7
      },
      "geometry": {
        "type": "Polygon",
        "coordinates": [
          [
            [113.0, -44.0],
            [154.0, -44.0],
            [154.0, -10.0],
            [113.0, -10.0],
            [113.0, -44.0]
          ]
        ]
      }
    }
  ]
}
